NORAD_CAT_ID,OBJECT_NAME,OBJECT_TYPE,EPOCH,MEAN_MOTION,ECCENTRICITY,INCLINATION,RA_OF_ASC_NODE,ARG_OF_PERICENTER,MEAN_ANOMALY,BSTAR,MEAN_MOTION_DOT,MEAN_MOTION_DDOT,TLE_LINE0,TLE_LINE1,TLE_LINE2,SEMIMAJOR_AXIS,PERIOD,APOGEE,PERIGEE,DECAYED
54078.0,STARLINK-5138,PAYLOAD,2023-12-27 04:29:33,15.08852354,0.0001852,53.2189,331.1288,63.776,296.3422,0.00026664,3.959e-05,0.0,0 STARLINK-5138,1 54078U 22136AD  23361.18719168  .00003959  00000-0  26664-3 0  9997,2 54078  53.2189 331.1288 0001852  63.7760 296.3422 15.08852354 65825,6917.843,95.437,540.989,538.426,0.0
54078.0,STARLINK-5138,PAYLOAD,2023-12-28 04:20:20,15.08842322,0.0001622,53.2184,326.667,68.8839,291.2326,0.00018999,2.737e-05,0.0,0 STARLINK-5138,1 54078U 22136AD  23362.18079721  .00002737  00000-0  18999-3 0  9997,2 54078  53.2184 326.6670 0001622  68.8839 291.2326 15.08842322 66453,6917.873,95.437,540.86,538.616,0.0
54078.0,STARLINK-5138,PAYLOAD,2023-12-28 21:49:35,15.08842769,0.0001456,53.2179,323.4084,94.5564,265.5595,6.3344e-05,7.2e-06,0.0,0 STARLINK-5138,1 54078U 22136AD  23362.90943679  .00000720  00000-0  63344-4 0  9994,2 54078  53.2179 323.4084 0001456  94.5564 265.5595 15.08842769 66083,6917.872,95.437,540.744,538.73,0.0
54078.0,STARLINK-5138,PAYLOAD,2023-12-29 07:21:53,15.08847767,0.0001427,53.2177,321.6207,105.5069,254.608,0.00015101,2.117e-05,0.0,0 STARLINK-5138,1 54078U 22136AD  23363.30687348  .00002117  00000-0  15101-3 0  9996,2 54078  53.2177 321.6207 0001427 105.5069 254.6080 15.08847767 66620,6917.857,95.437,540.709,538.734,0.0
54078.0,STARLINK-5138,PAYLOAD,2023-12-30 04:01:54,15.08842176,0.0001492,53.219,317.7513,105.2569,254.8588,0.00015406,2.165e-05,0.0,0 STARLINK-5138,1 54078U 22136AD  23364.16799678  .00002165  00000-0  15406-3 0  9992,2 54078  53.2190 317.7513 0001492 105.2569 254.8588 15.08842176 66753,6917.874,95.437,540.771,538.707,0.0
54078.0,STARLINK-5138,PAYLOAD,2023-12-30 07:12:41,15.08841828,0.0001469,53.2187,317.1581,101.3695,258.7462,0.00013761,1.903e-05,0.0,0 STARLINK-5138,1 54078U 22136AD  23364.30047738  .00001903  00000-0  13761-3 0  9992,2 54078  53.2187 317.1581 0001469 101.3695 258.7462 15.08841828 66295,6917.875,95.437,540.756,538.724,0.0
54078.0,STARLINK-5138,PAYLOAD,2023-12-30 21:31:09,15.0883639,0.0001435,53.2182,314.4818,102.3872,257.7281,-3.4299e-05,-8.34e-06,0.0,0 STARLINK-5138,1 54078U 22136AD  23364.89664091 -.00000834  00000-0 -34299-4 0  9997,2 54078  53.2182 314.4818 0001435 102.3872 257.7281 15.08836390 66380,6917.891,95.438,540.749,538.764,0.0
54078.0,STARLINK-5138,PAYLOAD,2023-12-31 03:52:42,15.08839641,0.0001351,53.2183,313.2925,104.8167,255.2975,2.8435e-05,1.65e-06,0.0,0 STARLINK-5138,1 54078U 22136AD  23365.16159916  .00000165  00000-0  28435-4 0  9993,2 54078  53.2183 313.2925 0001351 104.8167 255.2975 15.08839641 66901,6917.881,95.438,540.681,538.812,0.0
54078.0,STARLINK-5138,PAYLOAD,2023-12-31 07:03:28,15.08839554,0.0001333,53.2187,312.6985,106.2736,253.8403,4.4696e-05,4.24e-06,0.0,0 STARLINK-5138,1 54078U 22136AD  23365.29408173  .00000424  00000-0  44696-4 0  9994,2 54078  53.2187 312.6985 0001333 106.2736 253.8403 15.08839554 66444,6917.882,95.438,540.669,538.825,0.0
54078.0,STARLINK-5138,PAYLOAD,2024-01-01 03:43:29,15.08839713,0.000133,53.2187,308.8323,104.4202,255.6938,0.00011527,1.547e-05,0.0,0 STARLINK-5138,1 54078U 22136AD  24001.15520224  .00001547  00000-0  11527-3 0  9992,2 54078  53.2187 308.8323 0001330 104.4202 255.6938 15.08839713 66576,6917.881,95.438,540.666,538.826,0.0
54078.0,STARLINK-5138,PAYLOAD,2024-01-01 19:37:20,15.08839646,0.0001238,53.2185,305.86,97.3808,262.7324,0.00015133,2.121e-05,0.0,0 STARLINK-5138,1 54078U 22136AD  24001.81760272  .00002121  00000-0  15133-3 0  9990,2 54078  53.2185 305.8600 0001238  97.3808 262.7324 15.08839646 67156,6917.881,95.438,540.603,538.89,0.0
54078.0,STARLINK-5138,PAYLOAD,2024-01-02 05:09:38,15.08858508,0.0001247,53.2175,304.0772,97.7597,262.3537,0.00032617,4.909e-05,0.0,0 STARLINK-5138,1 54078U 22136AD  24002.21503136  .00004909  00000-0  32617-3 0  9991,2 54078  53.2175 304.0772 0001247  97.7597 262.3537 15.08858508 67212,6917.824,95.436,540.551,538.826,0.0
54078.0,STARLINK-5138,PAYLOAD,2024-01-02 19:28:07,15.08844458,0.0001895,53.2178,301.4035,74.7092,285.4109,0.00013902,1.925e-05,0.0,0 STARLINK-5138,1 54078U 22136AD  24002.81120072  .00001925  00000-0  13902-3 0  9992,2 54078  53.2178 301.4035 0001895  74.7092 285.4109 15.08844458 67302,6917.867,95.437,541.043,538.421,0.0
54078.0,STARLINK-5138,PAYLOAD,2024-01-03 05:00:26,15.08850964,0.0001566,53.2175,299.6191,77.2164,282.9003,0.00019304,2.786e-05,0.0,0 STARLINK-5138,1 54078U 22136AD  24003.20863578  .00002786  00000-0  19304-3 0  9999,2 54078  53.2175 299.6191 0001566  77.2164 282.9003 15.08850964 66889,6917.847,95.437,540.795,538.629,0.0
54078.0,STARLINK-5138,PAYLOAD,2024-01-04 01:40:27,15.08841242,0.0001547,53.217,295.751,87.83,272.287,4.6864e-06,-2.13e-06,0.0,0 STARLINK-5138,1 54078U 22136AD  24004.06975869 -.00000213  00000-0  46864-5 0  9998,2 54078  53.2170 295.7510 0001547  87.8300 272.2870 15.08841242 67495,6917.877,95.437,540.812,538.671,0.0
54078.0,STARLINK-5138,PAYLOAD,2024-01-04 04:51:13,15.08843249,0.0001544,53.2173,295.1565,86.5347,273.5822,-1.9365e-05,-5.96e-06,0.0,0 STARLINK-5138,1 54078U 22136AD  24004.20223858 -.00000596  00000-0 -19365-4 0  9998,2 54078  53.2173 295.1565 0001544  86.5347 273.5822 15.08843249 67036,6917.87,95.437,540.804,538.667,0.0
54078.0,STARLINK-5138,PAYLOAD,2024-01-04 22:20:28,15.08837603,0.0001602,53.2174,291.8851,97.4416,262.6758,1.9223e-05,1.8e-07,0.0,0 STARLINK-5138,1 54078U 22136AD  24004.93088291  .00000018  00000-0  19223-4 0  9998,2 54078  53.2174 291.8851 0001602  97.4416 262.6758 15.08837603 67147,6917.888,95.438,540.861,538.644,0.0
54078.0,STARLINK-5138,PAYLOAD,2024-01-05 01:31:14,15.08841538,0.0001667,53.2178,291.2913,96.9884,263.1298,7.3018e-05,8.74e-06,0.0,0 STARLINK-5138,1 54078U 22136AD  24005.06336097  .00000874  00000-0  73018-4 0  9995,2 54078  53.2178 291.2913 0001667  96.9884 263.1298 15.08841538 67167,6917.876,95.437,540.894,538.587,0.0
54078.0,STARLINK-5138,PAYLOAD,2024-01-05 22:11:14,15.088467,0.0001722,53.2178,287.4243,111.5321,248.5855,4.4097e-05,4.14e-06,0.0,0 STARLINK-5138,1 54078U 22136AD  24005.92447862  .00000414  00000-0  44097-4 0  9998,2 54078  53.2178 287.4243 0001722 111.5321 248.5855 15.08846700 67298,6917.86,95.437,540.916,538.534,0.0
54078.0,STARLINK-5138,PAYLOAD,2024-01-06 04:32:47,15.08848471,0.0001698,53.2179,286.2344,103.7224,256.3957,3.2011e-05,2.22e-06,0.0,0 STARLINK-5138,1 54078U 22136AD  24006.18943760  .00000222  00000-0  32011-4 0  9995,2 54078  53.2179 286.2344 0001698 103.7224 256.3957 15.08848471 67810,6917.854,95.437,540.894,538.545,0.0
54078.0,STARLINK-5138,PAYLOAD,2024-01-06 18:51:16,15.08838294,0.0001643,53.2178,283.5563,102.5192,257.5984,1.7464e-05,-1e-07,0.0,0 STARLINK-5138,1 54078U 22136AD  24006.78560365 -.00000010  00000-0  17464-4 0  9998,2 54078  53.2178 283.5563 0001643 102.5192 257.5984 15.08838294 67908,6917.886,95.438,540.887,538.614,0.0
54078.0,STARLINK-5138,PAYLOAD,2024-01-06 22:02:02,15.08841448,0.000165,53.217,282.9606,110.1633,249.9537,5.2624e-05,5.5e-06,0.0,0 STARLINK-5138,1 54078U 22136AD  24006.91808117  .00000550  00000-0  52624-4 0  9998,2 54078  53.2170 282.9606 0001650 110.1633 249.9537 15.08841448 67447,6917.876,95.437,540.882,538.6,0.0
54078.0,STARLINK-5138,PAYLOAD,2024-01-07 01:12:48,15.08840997,0.0001569,53.2183,282.3672,101.2301,258.8867,5.8295e-05,6.4e-06,0.0,0 STARLINK-5138,1 54078U 22136AD  24007.05056282  .00000640  00000-0  58295-4 0  9992,2 54078  53.2183 282.3672 0001569 101.2301 258.8867 15.08840997 67465,6917.877,95.437,540.828,538.657,0.0
54078.0,STARLINK-5138,PAYLOAD,2024-01-07 18:42:03,15.08829787,0.0001558,53.2182,279.0962,103.9951,256.1214,0.00011387,1.524e-05,0.0,0 STARLINK-5138,1 54078U 22136AD  24007.77920961  .00001524  00000-0  11387-3 0  9997,2 54078  53.2182 279.0962 0001558 103.9951 256.1214 15.08829787 68054,6917.912,95.438,540.854,538.699,0.0
54078.0,STARLINK-5138,PAYLOAD,2024-01-07 21:52:49,15.0883719,0.0001475,53.2179,278.5016,104.4248,255.6907,-1.3265e-05,-4.99e-06,0.0,0 STARLINK-5138,1 54078U 22136AD  24007.91168902 -.00000499  00000-0 -13265-4 0  9992,2 54078  53.2179 278.5016 0001475 104.4248 255.6907 15.08837190 67595,6917.889,95.438,540.774,538.734,0.0
54078.0,STARLINK-5138,PAYLOAD,2024-01-08 01:03:36,15.0881542,0.000166,53.2178,277.9066,105.577,254.5405,0.00031241,4.684e-05,0.0,0 STARLINK-5138,1 54078U 22136AD  24008.04417383  .00004684  00000-0  31241-3 0  9998,2 54078  53.2178 277.9066 0001660 105.5770 254.5405 15.08815420 68099,6917.956,95.439,540.969,538.672,0.0
54078.0,STARLINK-5138,PAYLOAD,2024-01-08 04:14:23,15.08781019,0.000192,53.218,277.3127,100.169,259.9519,0.00080352,0.00012503,0.0,0 STARLINK-5138,1 54078U 22136AD  24008.17666602  .00012503  00000-0  80352-3 0  9998,2 54078  53.2180 277.3127 0001920 100.1690 259.9519 15.08781019 68119,6918.061,95.441,541.254,538.597,0.0
54078.0,STARLINK-5138,PAYLOAD,2024-01-08 21:43:37,15.08836329,0.0001538,53.2179,274.0432,103.8223,256.2941,4.2452e-05,3.88e-06,0.0,0 STARLINK-5138,1 54078U 22136AD  24008.90529120  .00000388  00000-0  42452-4 0  9990,2 54078  53.2179 274.0432 0001538 103.8223 256.2941 15.08836329 67749,6917.892,95.438,540.821,538.693,0.0
54078.0,STARLINK-5138,PAYLOAD,2024-01-09 00:54:23,15.0883967,0.0001494,53.2179,273.4477,94.2611,265.8552,6.5892e-05,7.61e-06,0.0,0 STARLINK-5138,1 54078U 22136AD  24009.03776903  .00000761  00000-0  65892-4 0  9996,2 54078  53.2179 273.4477 0001494  94.2611 265.8552 15.08839670 68248,6917.881,95.438,540.78,538.713,0.0
54078.0,STARLINK-5138,PAYLOAD,2024-01-09 12:02:05,15.08838997,0.0001397,53.2168,271.3678,98.1009,262.0141,0.00011309,1.512e-05,0.0,0 STARLINK-5138,1 54078U 22136AD  24009.50144871  .00001512  00000-0  11309-3 0  9999,2 54078  53.2168 271.3678 0001397  98.1009 262.0141 15.08838997 67830,6917.883,95.438,540.715,538.782,0.0
